NORAD_CAT_ID,OBJECT_NAME,OBJECT_TYPE,EPOCH,MEAN_MOTION,ECCENTRICITY,INCLINATION,RA_OF_ASC_NODE,ARG_OF_PERICENTER,MEAN_ANOMALY,BSTAR,MEAN_MOTION_DOT,MEAN_MOTION_DDOT,TLE_LINE0,TLE_LINE1,TLE_LINE2,SEMIMAJOR_AXIS,PERIOD,APOGEE,PERIGEE,DECAYED
55671.0,STARLINK-5460,PAYLOAD,2024-08-19 04:37:02,14.98330847,0.000255,70.0014,155.5226,248.382,111.7067,8.0113e-05,8.63e-06,0.0,0 STARLINK-5460,1 55671U 23021AV  24232.19238498  .00000863  00000-0  80113-4 0  9993,2 55671  70.0014 155.5226 0002550 248.3820 111.7067 14.98330847 83970,6950.19,96.107,573.828,570.283,0.0
55671.0,STARLINK-5460,PAYLOAD,2024-08-19 12:37:42,14.98331207,0.0002484,70.0016,154.6797,274.809,85.2786,4.1796e-05,4.06e-06,0.0,0 STARLINK-5460,1 55671U 23021AV  24232.52618701  .00000406  00000-0  41796-4 0  9996,2 55671  70.0016 154.6797 0002484 274.8090  85.2786 14.98331207 84328,6950.189,96.107,573.781,570.328,0.0
55671.0,STARLINK-5460,PAYLOAD,2024-08-20 04:39:03,14.98330357,0.0002681,70.0009,152.9963,268.3988,91.6864,8.1999e-05,8.86e-06,0.0,0 STARLINK-5460,1 55671U 23021AV  24233.19378662  .00000886  00000-0  81999-4 0  9990,2 55671  70.0009 152.9963 0002681 268.3988  91.6864 14.98330357 84120,6950.192,96.107,573.92,570.193,0.0
55671.0,STARLINK-5460,PAYLOAD,2024-08-21 04:41:03,14.98343323,0.0002832,70.0007,150.4718,272.2588,87.8246,0.00014944,1.691e-05,0.0,0 STARLINK-5460,1 55671U 23021AV  24234.19517424  .00001691  00000-0  14944-3 0  9992,2 55671  70.0007 150.4718 0002832 272.2588  87.8246 14.98343323 84271,6950.152,96.106,573.985,570.048,0.0
55671.0,STARLINK-5460,PAYLOAD,2024-08-21 20:42:24,14.98325057,0.0002408,70.0024,148.7924,262.6983,97.3902,5.2052e-05,5.28e-06,0.0,0 STARLINK-5460,1 55671U 23021AV  24234.86278759  .00000528  00000-0  52052-4 0  9992,2 55671  70.0024 148.7924 0002408 262.6983  97.3902 14.98325057 84370,6950.208,96.107,573.747,570.4,0.0
